[{"OBJECT_NAME":"STARLINK-35051","OBJECT_ID":"2025-191B","EPOCH":"2026-03-09T15:17:21.278112","MEAN_MOTION":15.05650082,"ECCENTRICITY":0.0002487,"INCLINATION":97.6019,"RA_OF_ASC_NODE":301.507,"ARG_OF_PERICENTER":67.5466,"MEAN_ANOMALY":292.6024,"EPHEMERIS_TYPE":0,"CLASSIFICATION_TYPE":"U","NORAD_CAT_ID":65380,"ELEMENT_SET_NO":999,"REV_AT_EPOCH":3027,"BSTAR":0.0001986,"MEAN_MOTION_DOT":2.806e-5,"MEAN_MOTION_DDOT":0},{"OBJECT_NAME":"FENGYUN 1C DEB","OBJECT_ID":"1999-025CKC","EPOCH":"2026-03-08T17:03:17.573184","MEAN_MOTION":15.04248193,"ECCENTRICITY":0.00988517,"INCLINATION":98.9933,"RA_OF_ASC_NODE":156.7578,"ARG_OF_PERICENTER":358.897,"MEAN_ANOMALY":1.2019,"EPHEMERIS_TYPE":0,"CLASSIFICATION_TYPE":"U","NORAD_CAT_ID":31877,"ELEMENT_SET_NO":999,"REV_AT_EPOCH":332,"BSTAR":0.0010830251,"MEAN_MOTION_DOT":0.0001673,"MEAN_MOTION_DDOT":0}]
